[{"OBJECT_NAME":"IRIDIUM 122","OBJECT_ID":"2017-061C","EPOCH":"2026-03-09T22:07:58.507680","MEAN_MOTION":14.34217131,"ECCENTRICITY":0.00019893,"INCLINATION":86.3911,"RA_OF_ASC_NODE":66.6833,"ARG_OF_PERICENTER":88.1776,"MEAN_ANOMALY":271.9648,"EPHEMERIS_TYPE":0,"CLASSIFICATION_TYPE":"U","NORAD_CAT_ID":42957,"ELEMENT_SET_NO":999,"REV_AT_EPOCH":44055,"BSTAR":-1.2173426e-5,"MEAN_MOTION_DOT":-1.4e-7,"MEAN_MOTION_DDOT":0},{"OBJECT_NAME":"FENGYUN 1C DEB","OBJECT_ID":"1999-025KQ","EPOCH":"2026-03-09T13:25:58.662336","MEAN_MOTION":14.25936533,"ECCENTRICITY":0.00401675,"INCLINATION":99.4873,"RA_OF_ASC_NODE":287.658,"ARG_OF_PERICENTER":97.6134,"MEAN_ANOMALY":262.9608,"EPHEMERIS_TYPE":0,"CLASSIFICATION_TYPE":"U","NORAD_CAT_ID":29966,"ELEMENT_SET_NO":999,"REV_AT_EPOCH":99280,"BSTAR":0.00038723705,"MEAN_MOTION_DOT":8.8e-6,"MEAN_MOTION_DDOT":0}]
